CCSDS_OMM_VERS = 2.0
CREATION_DATE  = 
ORIGINATOR     = 

OBJECT_NAME    = SL-16 R/B
OBJECT_ID      = 1993-016B
CENTER_NAME    = EARTH
REF_FRAME      = TEME
TIME_SYSTEM    = UTC
MEAN_ELEMENT_THEORY = SGP/SGP4

EPOCH          = 2026-01-04T06:02:01.565664
MEAN_MOTION    = 14.15296461
ECCENTRICITY   = .00081164
INCLINATION    = 71.0090
RA_OF_ASC_NODE = 350.5214
ARG_OF_PERICENTER = 52.0524
MEAN_ANOMALY   = 308.1331

EPHEMERIS_TYPE = 0
CLASSIFICATION_TYPE = U
NORAD_CAT_ID   = 22566
ELEMENT_SET_NO = 999
REV_AT_EPOCH   = 69305
BSTAR          = -.118472E-6
MEAN_MOTION_DOT = -.48E-6
MEAN_MOTION_DDOT = 0

CCSDS_OMM_VERS = 2.0
CREATION_DATE  = 
ORIGINATOR     = 

OBJECT_NAME    = COSMOS 2242
OBJECT_ID      = 1993-024A
CENTER_NAME    = EARTH
REF_FRAME      = TEME
TIME_SYSTEM    = UTC
MEAN_ELEMENT_THEORY = SGP/SGP4

EPOCH          = 2026-01-04T07:23:31.497216
MEAN_MOTION    = 14.96226194
ECCENTRICITY   = .00169251
INCLINATION    = 82.5203
RA_OF_ASC_NODE = 328.2718
ARG_OF_PERICENTER = 156.0951
MEAN_ANOMALY   = 204.1061

EPHEMERIS_TYPE = 0
CLASSIFICATION_TYPE = U
NORAD_CAT_ID   = 22626
ELEMENT_SET_NO = 999
REV_AT_EPOCH   = 77076
BSTAR          = .32019229E-3
MEAN_MOTION_DOT = .3646E-4
MEAN_MOTION_DDOT = 0

CCSDS_OMM_VERS = 2.0
CREATION_DATE  = 
ORIGINATOR     = 

OBJECT_NAME    = SL-16 R/B
OBJECT_ID      = 1993-059B
CENTER_NAME    = EARTH
REF_FRAME      = TEME
TIME_SYSTEM    = UTC
MEAN_ELEMENT_THEORY = SGP/SGP4

EPOCH          = 2026-01-03T16:23:39.498720
MEAN_MOTION    = 14.17219329
ECCENTRICITY   = .00191833
INCLINATION    = 70.9901
RA_OF_ASC_NODE = 148.2138
ARG_OF_PERICENTER = 304.6335
MEAN_ANOMALY   = 55.2980

EPHEMERIS_TYPE = 0
CLASSIFICATION_TYPE = U
NORAD_CAT_ID   = 22803
ELEMENT_SET_NO = 999
REV_AT_EPOCH   = 67032
BSTAR          = -.29366771E-4
MEAN_MOTION_DOT = -.108E-5
MEAN_MOTION_DDOT = 0

CCSDS_OMM_VERS = 2.0
CREATION_DATE  = 
ORIGINATOR     = 

OBJECT_NAME    = ARIANE 40 R/B
OBJECT_ID      = 1993-061H
CENTER_NAME    = EARTH
REF_FRAME      = TEME
TIME_SYSTEM    = UTC
MEAN_ELEMENT_THEORY = SGP/SGP4

EPOCH          = 2026-01-04T04:11:03.938496
MEAN_MOTION    = 14.32819504
ECCENTRICITY   = .00117667
INCLINATION    = 98.5043
RA_OF_ASC_NODE = 74.2928
ARG_OF_PERICENTER = 113.7284
MEAN_ANOMALY   = 246.5136

EPHEMERIS_TYPE = 0
CLASSIFICATION_TYPE = U
NORAD_CAT_ID   = 22830
ELEMENT_SET_NO = 999
REV_AT_EPOCH   = 68486
BSTAR          = .19915159E-3
MEAN_MOTION_DOT = .5E-5
MEAN_MOTION_DDOT = 0

CCSDS_OMM_VERS = 2.0
CREATION_DATE  = 
ORIGINATOR     = 

OBJECT_NAME    = COSMOS 2278
OBJECT_ID      = 1994-023A
CENTER_NAME    = EARTH
REF_FRAME      = TEME
TIME_SYSTEM    = UTC
MEAN_ELEMENT_THEORY = SGP/SGP4

EPOCH          = 2026-01-04T07:25:30.889920
MEAN_MOTION    = 14.14355882
ECCENTRICITY   = .00073186
INCLINATION    = 71.0546
RA_OF_ASC_NODE = 309.7907
ARG_OF_PERICENTER = 138.4772
MEAN_ANOMALY   = 221.6908

EPHEMERIS_TYPE = 0
CLASSIFICATION_TYPE = U
NORAD_CAT_ID   = 23087
ELEMENT_SET_NO = 999
REV_AT_EPOCH   = 63570
BSTAR          = .26681303E-3
MEAN_MOTION_DOT = .463E-5
MEAN_MOTION_DDOT = 0

CCSDS_OMM_VERS = 2.0
CREATION_DATE  = 
ORIGINATOR     = 

OBJECT_NAME    = SL-16 R/B
OBJECT_ID      = 1994-023B
CENTER_NAME    = EARTH
REF_FRAME      = TEME
TIME_SYSTEM    = UTC
MEAN_ELEMENT_THEORY = SGP/SGP4

EPOCH          = 2026-01-04T05:50:56.392800
MEAN_MOTION    = 14.14999585
ECCENTRICITY   = .00026091
INCLINATION    = 70.9982
RA_OF_ASC_NODE = 206.2278
ARG_OF_PERICENTER = 353.9910
MEAN_ANOMALY   = 6.1181

EPHEMERIS_TYPE = 0
CLASSIFICATION_TYPE = U
NORAD_CAT_ID   = 23088
ELEMENT_SET_NO = 999
REV_AT_EPOCH   = 63697
BSTAR          = .14044174E-3
MEAN_MOTION_DOT = .224E-5
MEAN_MOTION_DDOT = 0

CCSDS_OMM_VERS = 2.0
CREATION_DATE  = 
ORIGINATOR     = 

OBJECT_NAME    = SL-16 R/B
OBJECT_ID      = 1994-074B
CENTER_NAME    = EARTH
REF_FRAME      = TEME
TIME_SYSTEM    = UTC
MEAN_ELEMENT_THEORY = SGP/SGP4

EPOCH          = 2026-01-04T01:23:23.347968
MEAN_MOTION    = 14.79321007
ECCENTRICITY   = .00079638
INCLINATION    = 97.7179
RA_OF_ASC_NODE = 37.4729
ARG_OF_PERICENTER = 75.1486
MEAN_ANOMALY   = 313.8921

EPHEMERIS_TYPE = 0
CLASSIFICATION_TYPE = U
NORAD_CAT_ID   = 23343
ELEMENT_SET_NO = 999
REV_AT_EPOCH   = 67769
BSTAR          = .12404875E-3
MEAN_MOTION_DOT = .874E-5
MEAN_MOTION_DDOT = 0

CCSDS_OMM_VERS = 2.0
CREATION_DATE  = 
ORIGINATOR     = 

OBJECT_NAME    = SL-16 R/B
OBJECT_ID      = 1994-077B
CENTER_NAME    = EARTH
REF_FRAME      = TEME
TIME_SYSTEM    = UTC
MEAN_ELEMENT_THEORY = SGP/SGP4

EPOCH          = 2026-01-04T00:55:23.069280
MEAN_MOTION    = 14.15550034
ECCENTRICITY   = .00049475
INCLINATION    = 70.9829
RA_OF_ASC_NODE = 128.5041
ARG_OF_PERICENTER = 265.8792
MEAN_ANOMALY   = 94.1766

EPHEMERIS_TYPE = 0
CLASSIFICATION_TYPE = U
NORAD_CAT_ID   = 23405
ELEMENT_SET_NO = 999
REV_AT_EPOCH   = 60708
BSTAR          = -.16378412E-4
MEAN_MOTION_DOT = -.8E-6
MEAN_MOTION_DDOT = 0

CCSDS_OMM_VERS = 2.0
CREATION_DATE  = 
ORIGINATOR     = 

OBJECT_NAME    = ARIANE 40+ R/B
OBJECT_ID      = 1995-021B
CENTER_NAME    = EARTH
REF_FRAME      = TEME
TIME_SYSTEM    = UTC
MEAN_ELEMENT_THEORY = SGP/SGP4

EPOCH          = 2026-01-04T04:16:12.263808
MEAN_MOTION    = 14.39716445
ECCENTRICITY   = .00062839
INCLINATION    = 98.4620
RA_OF_ASC_NODE = 76.4932
ARG_OF_PERICENTER = 344.0650
MEAN_ANOMALY   = 41.8767

EPHEMERIS_TYPE = 0
CLASSIFICATION_TYPE = U
NORAD_CAT_ID   = 23561
ELEMENT_SET_NO = 999
REV_AT_EPOCH   = 60996
BSTAR          = .19197122E-3
MEAN_MOTION_DOT = .558E-5
MEAN_MOTION_DDOT = 0

CCSDS_OMM_VERS = 2.0
CREATION_DATE  = 
ORIGINATOR     = 

OBJECT_NAME    = SL-16 R/B
OBJECT_ID      = 1995-058B
CENTER_NAME    = EARTH
REF_FRAME      = TEME
TIME_SYSTEM    = UTC
MEAN_ELEMENT_THEORY = SGP/SGP4

EPOCH          = 2026-01-04T06:06:09.658080
MEAN_MOTION    = 14.15484880
ECCENTRICITY   = .00141735
INCLINATION    = 71.0226
RA_OF_ASC_NODE = 315.5349
ARG_OF_PERICENTER = 224.9989
MEAN_ANOMALY   = 134.9987

EPHEMERIS_TYPE = 0
CLASSIFICATION_TYPE = U
NORAD_CAT_ID   = 23705
ELEMENT_SET_NO = 999
REV_AT_EPOCH   = 55873
BSTAR          = .19824991E-3
MEAN_MOTION_DOT = .34E-5
MEAN_MOTION_DDOT = 0

CCSDS_OMM_VERS = 2.0
CREATION_DATE  = 
ORIGINATOR     = 

OBJECT_NAME    = SL-16 R/B
OBJECT_ID      = 1996-051B
CENTER_NAME    = EARTH
REF_FRAME      = TEME
TIME_SYSTEM    = UTC
MEAN_ELEMENT_THEORY = SGP/SGP4

EPOCH          = 2026-01-04T07:02:24.366048
MEAN_MOTION    = 14.12399406
ECCENTRICITY   = .00193606
INCLINATION    = 70.7599
RA_OF_ASC_NODE = 311.5443
ARG_OF_PERICENTER = 233.7372
MEAN_ANOMALY   = 126.1959

EPHEMERIS_TYPE = 0
CLASSIFICATION_TYPE = U
NORAD_CAT_ID   = 24298
ELEMENT_SET_NO = 999
REV_AT_EPOCH   = 51255
BSTAR          = .50673476E-4
MEAN_MOTION_DOT = .44E-6
MEAN_MOTION_DDOT = 0

CCSDS_OMM_VERS = 2.0
CREATION_DATE  = 
ORIGINATOR     = 

OBJECT_NAME    = ORBVIEW 2 (SEASTAR)
OBJECT_ID      = 1997-037A
CENTER_NAME    = EARTH
REF_FRAME      = TEME
TIME_SYSTEM    = UTC
MEAN_ELEMENT_THEORY = SGP/SGP4

EPOCH          = 2026-01-04T06:58:39.843552
MEAN_MOTION    = 14.35437616
ECCENTRICITY   = .00014096
INCLINATION    = 98.8472
RA_OF_ASC_NODE = 166.9353
ARG_OF_PERICENTER = 235.5586
MEAN_ANOMALY   = 124.5466

EPHEMERIS_TYPE = 0
CLASSIFICATION_TYPE = U
NORAD_CAT_ID   = 24883
ELEMENT_SET_NO = 999
REV_AT_EPOCH   = 49923
BSTAR          = .19469516E-3
MEAN_MOTION_DOT = .513E-5
MEAN_MOTION_DDOT = 0

