SL-16 R/B               
1 22566U 93016B   26004.25140701 -.00000048  00000+0 -11847-6 0  9992
2 22566  71.0090 350.5214 0008116  52.0524 308.1331 14.15296461693055
COSMOS 2242             
1 22626U 93024A   26004.30800344  .00003646  00000+0  32019-3 0  9996
2 22626  82.5203 328.2718 0016925 156.0951 204.1061 14.96226194770766
SL-16 R/B               
1 22803U 93059B   26003.68309605 -.00000108  00000+0 -29367-4 0  9990
2 22803  70.9901 148.2138 0019183 304.6335  55.2980 14.17219329670322
ARIANE 40 R/B           
1 22830U 93061H   26004.17435114  .00000500  00000+0  19915-3 0  9994
2 22830  98.5043  74.2928 0011766 113.7284 246.5136 14.32819504684861
COSMOS 2278             
1 23087U 94023A   26004.30938530  .00000463  00000+0  26681-3 0  9999
2 23087  71.0546 309.7907 0007318 138.4772 221.6908 14.14355882635701
SL-16 R/B               
1 23088U 94023B   26004.24370825  .00000224  00000+0  14044-3 0  9995
2 23088  70.9982 206.2278 0002609 353.9910   6.1181 14.14999585636975
SL-16 R/B               
1 23343U 94074B   26004.05790912  .00000874  00000+0  12405-3 0  9997
2 23343  97.7179  37.4729 0007963  75.1486 313.8921 14.79321007677691
SL-16 R/B               
1 23405U 94077B   26004.03846145 -.00000080  00000+0 -16378-4 0  9992
2 23405  70.9829 128.5041 0004947 265.8792  94.1766 14.15550034607087
ARIANE 40+ R/B          
1 23561U 95021B   26004.17791972  .00000558  00000+0  19197-3 0  9996
2 23561  98.4620  76.4932 0006283 344.0650  41.8767 14.39716445609967
SL-16 R/B               
1 23705U 95058B   26004.25427845  .00000340  00000+0  19825-3 0  9997
2 23705  71.0226 315.5349 0014173 224.9989 134.9987 14.15484880558738
SL-16 R/B               
1 24298U 96051B   26004.29333757  .00000044  00000+0  50673-4 0  9999
2 24298  70.7599 311.5443 0019360 233.7372 126.1959 14.12399406512551
ORBVIEW 2 (SEASTAR)     
1 24883U 97037A   26004.29073893  .00000513  00000+0  19470-3 0  9996
2 24883  98.8472 166.9353 0001409 235.5586 124.5466 14.35437616499231
